KUIPER-00008            
1 63724U 25088A   25326.11980873  .00005363  00000+0  44596-3 0  9997
2 63724  51.8902 217.3269 0011023 104.8569 255.3624 15.00095324 31920
KUIPER-00009            
1 63725U 25088B   25326.13306239 -.00001837  00000+0 -20900-3 0  9995
2 63725  51.9000 222.1520 0013430 101.3955 258.8517 14.80359293 31856
KUIPER-00010            
1 63726U 25088C   25326.06163810  .00003020  00000+0  42140-3 0  9998
2 63726  51.8992 198.9768 0012459 142.6559 217.5272 14.80283597 31794
KUIPER-00011            
1 63727U 25088D   25326.09078668  .00004626  00000+0  63619-3 0  9995
2 63727  51.8982 206.4613 0014505 114.9655 245.2816 14.79843472 31829
KUIPER-00012            
1 63728U 25088E   25325.00002315 -.01223939  00000+0 -13812+0 0  9991
2 63728  51.9109 194.4314 0009481 125.1917 102.4139 14.89271414  5890
KUIPER-00013            
1 63729U 25088F   25325.93670460  .00000400  00000+0  81738-4 0  9996
2 63729  51.9000 224.5653 0008443  37.0893 323.0651 14.79946175 31614
KUIPER-00014            
1 63730U 25088G   25325.93516180  .00005656  00000+0  77079-3 0  9996
2 63730  51.9011 225.5434 0009904  92.9226 267.2870 14.79888613 31411
KUIPER-00015            
1 63731U 25088H   25326.07006328  .00006084  00000+0  79010-3 0  9994
2 63731  51.8989 236.2200 0011115  82.8255 277.3972 14.81807783 31734
